[{"OBJECT_NAME":"CORVUS BC1","OBJECT_ID":"2017-042Y","EPOCH":"2026-03-09T22:24:00.973440","MEAN_MOTION":15.05817893,"ECCENTRICITY":0.00132832,"INCLINATION":97.3986,"RA_OF_ASC_NODE":234.9925,"ARG_OF_PERICENTER":71.1953,"MEAN_ANOMALY":289.0714,"EPHEMERIS_TYPE":0,"CLASSIFICATION_TYPE":"U","NORAD_CAT_ID":42847,"ELEMENT_SET_NO":999,"REV_AT_EPOCH":47215,"BSTAR":0.00033801202,"MEAN_MOTION_DOT":4.853e-5,"MEAN_MOTION_DDOT":0},{"OBJECT_NAME":"STARLINK-1579","OBJECT_ID":"2020-055BJ","EPOCH":"2026-03-09T10:48:51.224832","MEAN_MOTION":15.06397766,"ECCENTRICITY":0.00013841,"INCLINATION":53.0548,"RA_OF_ASC_NODE":97.6832,"ARG_OF_PERICENTER":84.3273,"MEAN_ANOMALY":275.7874,"EPHEMERIS_TYPE":0,"CLASSIFICATION_TYPE":"U","NORAD_CAT_ID":46083,"ELEMENT_SET_NO":999,"REV_AT_EPOCH":30926,"BSTAR":-4.9840105e-5,"MEAN_MOTION_DOT":-1.024e-5,"MEAN_MOTION_DDOT":0}]
