CORVUS BC1              
1 42847U 17042Y   26068.93334460  .00004853  00000+0  33801-3 0  9990
2 42847  97.3986 234.9925 0013283  71.1953 289.0714 15.05817892472152
STARLINK-1579           
1 46083U 20055BJ  26068.45059288 -.00001024  00000+0 -49840-4 0  9993
2 46083  53.0548  97.6832 0001384  84.3273 275.7874 15.06397766309266
